OBJECT_NAME,OBJECT_ID,EPOCH,MEAN_MOTION,ECCENTRICITY,INCLINATION,RA_OF_ASC_NODE,ARG_OF_PERICENTER,MEAN_ANOMALY,EPHEMERIS_TYPE,CLASSIFICATION_TYPE,NORAD_CAT_ID,ELEMENT_SET_NO,REV_AT_EPOCH,BSTAR,MEAN_MOTION_DOT,MEAN_MOTION_DDOT
BEIDOU-3S IGSO-1S (C31),2015-019A,2026-07-02T17:55:43.136256,1.00248556,.0039341,49.1658,295.2758,192.3032,152.1200,0,U,40549,999,4122,0,-.143E-5,0
GPS BIIF-10 (PRN 08),2015-033A,2026-07-02T16:15:42.562944,2.00555543,.0115202,53.9706,266.4476,30.2635,330.4701,0,U,40730,999,8030,0,-.6E-7,0
BEIDOU-3S M2S (C58),2015-037A,2026-07-02T08:35:27.801888,1.86232514,.0008941,54.8565,301.5241,257.9536,101.9638,0,U,40748,999,7440,0,-.61E-6,0
BEIDOU-3S M1S (C57),2015-037B,2026-07-01T11:45:13.356288,1.86255000,.00031011,54.8538,301.5415,62.8434,297.2018,0,U,40749,999,7439,0,-.65E-6,0
GSAT0206 (GALILEO 10),2015-045B,2026-07-01T12:50:49.477632,1.70473858,.00016203,54.9416,221.2080,340.3144,19.7690,0,U,40890,999,6728,0,.74E-6,0
BEIDOU-3S IGSO-2S (C56),2015-053A,2026-07-02T16:08:35.901600,1.00256360,.0065697,49.1969,258.5980,193.2584,165.2618,0,U,40938,999,3950,0,-.96E-6,0
GPS BIIF-11 (PRN 10),2015-062A,2026-06-29T17:47:48.867648,2.00567192,.01122445,56.9678,30.3277,230.9838,128.0695,0,U,41019,999,7808,0,-.66E-6,0
GSAT-15 (GAGAN/PRN 139),2015-065A,2026-07-02T16:59:36.073824,1.00270279,.000444,0.0419,250.8690,191.0709,187.1953,0,U,41028,999,3895,0,-.247E-5,0
GSAT0209 (GALILEO 12),2015-079A,2026-06-28T04:24:50.829696,1.70473803,.00050857,55.8335,100.9603,347.1897,12.7761,0,U,41174,999,6496,0,-.33E-6,0
GSAT0208 (GALILEO 11),2015-079B,2026-07-01T22:10:17.474304,1.70473736,.0004614,55.8336,100.8547,354.4374,5.5610,0,U,41175,999,6544,0,-.13E-6,0
IRNSS-1E,2016-003A,2026-06-29T19:51:21.425184,1.00272765,.00192006,33.2608,59.5670,178.7998,89.1855,0,U,41241,999,3820,0,-.31E-5,0
GPS BIIF-12 (PRN 32),2016-007A,2026-06-29T20:00:04.300704,2.00551193,.00956433,55.5312,88.9584,247.1499,111.8568,0,U,41328,999,7609,0,-.37E-6,0
COSMOS 2514 (751),2016-008A,2026-07-01T19:58:25.215456,2.13102696,.00118405,65.0121,312.5042,199.6375,160.3188,0,U,41330,999,8093,0,-.51E-6,0
BEIDOU-2 IGSO-6 (C13),2016-021A,2026-06-26T02:38:38.671584,1.00258926,.0057558,60.2385,37.9495,231.0163,137.2672,0,U,41434,999,3757,0,-.145E-5,0
IRNSS-1G,2016-027A,2026-07-02T19:49:11.001792,1.00279606,.0005815,5.2333,97.1137,5.9464,244.6290,0,U,41469,999,3733,0,-.326E-5,0
GSAT0211 (GALILEO 14),2016-030A,2026-06-27T22:35:47.691744,1.70474008,.00031164,55.0927,221.3989,320.4926,39.5816,0,U,41549,999,6285,0,.69E-6,0
GSAT0210 (GALILEO 13),2016-030B,2026-07-02T07:18:59.007168,1.70473959,.0008314,55.0898,221.2768,256.8787,103.1145,0,U,41550,999,6292,0,.74E-6,0
BEIDOU-2 G7 (C03),2016-037A,2026-07-02T21:21:05.912928,1.00269372,.0006763,1.7570,69.4388,3.8377,278.4583,0,U,41586,999,704,0,-.343E-5,0
EUTELSAT 117 WEST B (WAAS/PRN 131),2016-038B,2026-07-02T15:08:14.201088,1.00268475,.0000328,0.0082,201.6637,106.1903,82.8636,0,U,41589,999,3681,0,0,0
GSAT0207 (GALILEO 15),2016-069A,2026-06-26T17:13:02.065728,1.70473700,.00050068,55.5042,100.8225,333.0982,26.8500,0,U,41859,999,5956,0,-.38E-6,0
GSAT0212 (GALILEO 16),2016-069B,2026-06-28T07:56:01.576320,1.70473934,.00044344,55.5028,100.7730,6.1382,353.8467,0,U,41860,999,5984,0,-.33E-6,0
GSAT0213 (GALILEO 17),2016-069C,2026-06-28T02:40:06.685536,1.70474290,.00045371,55.5047,100.7870,315.9585,43.9839,0,U,41861,999,5970,0,-.34E-6,0
GSAT0214 (GALILEO 18),2016-069D,2026-07-01T04:34:09.619968,1.70473880,.00035565,55.5050,100.6945,328.0660,31.9108,0,U,41862,999,5988,0,-.17E-6,0
SES-15 (WAAS/PRN 133),2017-026A,2026-07-02T16:47:25.712160,1.00268893,.000065,0.0224,333.2990,116.3241,313.8103,0,U,42709,999,758,0,.71E-6,0
QZS-2 (QZSS/PRN 194),2017-028A,2026-07-02T11:16:48.921024,1.00279990,.0758655,39.4044,242.9285,269.4438,79.5216,0,U,42738,999,777,0,-.108E-5,0
QZS-3 (QZSS/PRN 199),2017-048A,2026-07-02T19:55:25.142304,1.00268778,.0002228,0.0766,134.3955,325.6392,246.7034,0,U,42917,999,3241,0,-.337E-5,0
COSMOS 2522 (752),2017-055A,2026-07-02T14:36:11.051136,2.13102034,.0010918,64.0799,191.3594,240.8035,119.1169,0,U,42939,999,6830,0,.82E-6,0
QZS-4 (QZSS/PRN 195),2017-062A,2026-07-02T18:25:04.515168,1.00294869,.0746818,40.1001,343.2884,268.3349,83.7779,0,U,42965,999,3196,0,-.316E-5,0
BEIDOU-3 M1 (C19),2017-069A,2026-07-01T15:08:27.612096,1.86231668,.00097807,56.7042,62.6089,326.4451,33.5606,0,U,43001,999,5887,0,-.4E-6,0
BEIDOU-3 M2 (C20),2017-069B,2026-07-01T13:40:18.942816,1.86230997,.000873,56.7035,62.6467,353.7874,6.2692,0,U,43002,999,5886,0,-.4E-6,0
GSAT0215 (GALILEO 19),2017-079A,2026-07-02T06:24:01.464768,1.70474379,.0004952,55.0700,221.0915,269.1810,90.8482,0,U,43055,999,5324,0,.74E-6,0
